IRIDIUM 119             
1 42959U 17061E   25253.70378173  .00000187  00000+0  59732-4 0  9992
2 42959  86.4009 142.1031 0002074  91.6758 268.4675 14.34217674414757
IRIDIUM 107             
1 42960U 17061F   25254.14142935  .00000226  00000+0  73751-4 0  9999
2 42960  86.4008 141.9401 0002391  93.9381 266.2089 14.34218720414821
IRIDIUM 132             
1 42961U 17061G   25254.14776342  .00000200  00000+0  64510-4 0  9990
2 42961  86.4009 141.9189 0002208  87.2175 272.9273 14.34218077414824
IRIDIUM 136             
1 42962U 17061H   25254.10970810  .00000224  00000+0  72827-4 0  9999
2 42962  86.4009 141.9400 0002145  90.6008 269.5433 14.34218551414832
IRIDIUM 139             
1 42963U 17061J   25254.11604989  .00000163  00000+0  51181-4 0  9994
2 42963  86.4011 141.9948 0002303  88.3301 271.8158 14.34217035414846
IRIDIUM 125             
1 42964U 17061K   25254.10336482  .00000108  00000+0  31515-4 0  9992
2 42964  86.4013 142.0560 0002124  99.9462 260.1974 14.34217750414850
IRIDIUM 135             
1 43070U 17083A   25254.21702529  .00000078  00000+0  20940-4 0  9992
2 43070  86.3905  78.6359 0002137  83.8924 276.2515 14.34218232404165
IRIDIUM 138             
1 43071U 17083B   25254.24239533  .00000021  00000+0  57876-6 0  9994
2 43071  86.3895  78.2849 0001740  99.3404 260.7989 14.34217629404159
